ADRAS-J                 
1 58992U 24034A   24120.47858647  .00004116  00000+0  39012-3 0  9993
2 58992  98.2103  91.3234 0043412 206.8854 153.0115 14.93481484 10594
